ONEWEB-0230             
1 48769U 21045C   24074.24695752  .00000126  00000+0  29930-3 0  9997
2 48769  87.8963  63.4268 0002046  83.4747 276.6616 13.15547213136209
ONEWEB-0237             
1 48770U 21045D   24074.46403866 -.00000017  00000+0 -80374-4 0  9997
2 48770  87.8970  63.3087 0001751  72.4732 287.6589 13.15547401137088
ONEWEB-0235             
1 48771U 21045E   24074.51475197  .00000023  00000+0  27129-4 0  9994
2 48771  87.8963  63.3167 0001863  61.6229 298.5089 13.15547848137075
ONEWEB-0242             
1 48772U 21045F   24074.50841435  .00000127  00000+0  30217-3 0  9992
2 48772  87.8964  63.3071 0001969  79.6076 280.5276 13.15547633137124
ONEWEB-0241             
1 48773U 21045G   24074.49572442  .00000047  00000+0  89760-4 0  9999
2 48773  87.8975  63.3476 0001459  81.6081 278.5214 13.15549463137031
ONEWEB-0243             
1 48774U 21045H   24074.45136564 -.00000032  00000+0 -12008-3 0  9993
2 48774  87.8972  63.3147 0001632  69.7754 290.3552 13.15548375137051
ONEWEB-0222             
1 48775U 21045J   24073.97838642 -.00000001  00000+0 -36014-4 0  9996
2 48775  87.8961  63.4233 0001669  79.6757 280.4562 13.15546775135905
ONEWEB-0244             
1 48776U 21045K   24074.46086961 -.00000064  00000+0 -20389-3 0  9997
2 48776  87.8959  63.3103 0002066  79.7469 280.3894 13.15547021137657
